FENGYUN 1C DEB          
1 31754U 99025CFD 17345.39691074  .00000439  00000-0  18996-3 0  9996
2 31754  99.0893 147.0420 0061782  79.3524 281.4605 14.28613013551558
